MMS 1                   
1 40482U 15011A   24365.66667824 -.00001021  00000+0  00000+0 0  9994
2 40482  58.3902   0.5446 8916165 155.0609  94.3148  0.28521365  1369
MMS 2                   
1 40483U 15011B   24365.75001157 -.00001027  00000+0  00000+0 0  9992
2 40483  58.3926   0.5424 8916083 155.0629 101.3047  0.28520019  1365
MMS 3                   
1 40484U 15011C   24365.66667824 -.00001021  00000+0  00000+0 0  9996
2 40484  58.3918   0.5434 8916104 155.0616  93.0214  0.28520512  1369
MMS 4                   
1 40485U 15011D   24365.83334491 -.00001033  00000+0  00000+0 0  9990
2 40485  58.3936   0.5408 8915468 155.0625 100.2972  0.28519760  1368
TDRS 13                 
1 42915U 17047A   24366.88642355 -.00000075  00000+0  00000+0 0  9993
2 42915   3.5117 349.1645 0010542 118.9074 300.4544  1.00271248 27019
NOAA 20 (JPSS-1)        
1 43013U 17073A   25001.12076721  .00000364  00000+0  19322-3 0  9995
2 43013  98.7273 301.8811 0001796  48.5066 311.6264 14.19529727368987
TJS-13                  
1 62188U 24227A   24359.55839254  .00000649  00000+0  00000+0 0  9993
2 62188  63.4140 104.2912 6967623 269.5924  17.3869  2.00566904   422
CZ-3B R/B               
1 62189U 24227B   24364.54472085  .00093390  11817-5  44524-3 0  9996
2 62189  51.3481 106.3015 7522871 229.8788  35.7909  2.03540587   537
HAISHAO-1               
1 62190U 24228A   25001.11163535  .00045408  00000+0  71354-3 0  9992
2 62190  42.9939 302.0268 0115843 245.8061 113.0652 15.45500886  4256
STARLINK-32686          
1 62192U 24229A   24366.75001157 -.01535437  00000+0 -44467-1 0  9991
2 62192  42.9994 198.6069 0001565 276.8131 155.1826 15.38100704  5511
STARLINK-32688          
1 62193U 24229B   24366.75001157 -.01532558  00000+0 -32020-1 0  9995
2 62193  42.9989 198.4015 0001269 269.7808 246.1921 15.47701054  5442
STARLINK-32684          
1 62194U 24229C   24366.75001157 -.01534410  00000+0 -38816-1 0  9994
2 62194  42.9993 198.4824 0001441 277.7252 205.2567 15.42155064  5564
STARLINK-32672          
1 62195U 24229D   24366.75001157 -.01533627  00000+0 -35833-1 0  9990
2 62195  42.9991 198.4308 0001385 276.6504 227.0794 15.44485054  5410
STARLINK-32682          
1 62196U 24229E   24366.89027376  .00060678  00000+0  30411-3 0  9994
2 62196  42.9980 194.5455 0002002 275.5494  84.5149 15.80891311  4373
STARLINK-32663          
1 62197U 24229F   24366.91316170  .00000092  00000+0  73863-5 0  9995
2 62197  42.9993 197.4160 0001283 279.0541  81.0174 15.50574863  4349
STARLINK-32640          
1 62198U 24229G   24366.75001157 -.01532505  00000+0 -37798-1 0  9999
2 62198  42.9991 198.4404 0001387 275.8298 223.4144 15.42898952  5415
STARLINK-32653          
1 62199U 24229H   24366.75001157 -.01408731  00000+0 -28032-1 0  9994
2 62199  42.9990 197.1916 0001540 271.8732  10.9128 15.49321859  5571
STARLINK-32647          
1 62200U 24229J   24366.91262244 -.00165225  00000+0 -29540-2 0  9994
2 62200  42.9985 197.4086 0002931 270.0347  90.0177 15.49765432  4343
STARLINK-32667          
1 62201U 24229K   24366.75001157 -.01533840  00000+0 -42152-1 0  9997
2 62201  42.9993 198.5121 0001464 277.1048 192.7321 15.39683325  5410
STARLINK-32655          
1 62202U 24229L   24366.84702733 -.00000402  00000+0 -10309-5 0  9991
2 62202  42.9980 197.7745 0001842 245.1800 114.8868 15.50577094  4330
STARLINK-32665          
1 62203U 24229M   24366.75001157 -.01531244  00000+0 -33759-1 0  9998
2 62203  42.9991 198.3672 0001326 272.7982 256.0837 15.46160721  5519
STARLINK-32664          
1 62204U 24229N   24366.84641646 -.00025430  00000+0 -43102-3 0  9991
2 62204  42.9969 197.7678 0002231 239.1030 120.9611 15.50448456  4338
STARLINK-32660          
1 62205U 24229P   24366.75001157 -.01531007  00000+0 -36560-1 0  9990
2 62205  42.9992 197.8994 0001502 277.3026  80.8821 15.43843026  5417
STARLINK-32448          
1 62206U 24229Q   24366.75001157 -.01532348  00000+0 -41204-1 0  9991
2 62206  42.9992 198.4628 0001404 276.8020 212.2011 15.40334142  5411
STARLINK-32430          
1 62207U 24229R   24366.75001157 -.01533783  00000+0 -43675-1 0  9990
2 62207  42.9993 198.5203 0001475 277.6305 188.1479 15.38610535  5459
STARLINK-32675          
1 62208U 24229S   24366.75001157 -.01531015  00000+0 -36521-1 0  9999
2 62208  42.9990 198.3767 0001322 275.3577 248.9637 15.43875848  5511
STARLINK-32671          
1 62209U 24229T   24366.65103797  .00001782  00000+0  36179-4 0  9994
2 62209  42.9972 198.8838 0001386 260.4750  99.5953 15.50581605  4304
STARLINK-32670          
1 62210U 24229U   24366.75001157 -.01530945  00000+0 -38179-1 0  9994
2 62210  42.9991 198.3986 0001350 275.2642 240.2889 15.42570569  5415
STARLINK-32642          
1 62211U 24229V   24366.75001157 -.01531189  00000+0 -40031-1 0  9996
2 62211  42.9991 198.4216 0001355 276.4704 229.3660 15.41171960  5449
STARLINK-32668          
1 62212U 24229W   24366.75001157 -.01533085  00000+0 -45360-1 0  9994
2 62212  42.9994 198.5304 0001484 277.5102 183.4886 15.37443844  5414
STARLINK-32669          
1 62213U 24229X   24366.90767417  .00001122  00000+0  24958-4 0  9992
2 62213  42.9993 197.3681 0001526 249.8456 110.2240 15.50573010  4347
STARLINK-32666          
1 62214U 24229Y   24366.90733333  .00001309  00000+0  28133-4 0  9999
2 62214  42.9986 197.3626 0001452 259.3317 100.7380 15.50570713  4345
STARLINK-32662          
1 62215U 24229Z   24366.84269043 -.00033873  00000+0 -57768-3 0  9993
2 62215  42.9957 197.7344 0002857 229.9203 130.1407 15.50397723  4336
COSMOS 2580             
1 62216U 24230A   24366.96098914  .00000035  00000+0  79134-4 0  9990
2 62216  67.1457 264.4320 0006547 264.6147  95.4191 13.96674807  3814
SL-4 R/B                
1 62217U 24230B   25001.13536940  .00218253  13828-4  10319-2 0  9991
2 62217  67.1341 251.4855 0424397  66.8075 297.7176 15.12826881  4132
STARLINK-11394 [DTC]    
1 62218U 24231A   24366.59568442  .00005800  00000+0  39418-4 0  9996
2 62218  53.1579  77.4192 0000474  67.0297 293.0774 15.76720460  5271
STARLINK-11490 [DTC]    
1 62219U 24231B   24365.64001421  .00061883  00000+0  37887-3 0  9991
2 62219  53.1581  82.1253 0001017  61.5939 298.5185 15.76757016  5220
STARLINK-11466 [DTC]    
1 62220U 24231C   24366.58592397  .00065095  00000+0  39796-3 0  9994
2 62220  53.1559  77.3498 0001477  86.5612 273.5578 15.76769333  5324
STARLINK-11468 [DTC]    
1 62221U 24231D   24366.51765079  .00203030  00000+0  12081-2 0  9997
2 62221  53.1552  77.6353 0001602  93.4024 266.7180 15.76859211  5312
STARLINK-11488 [DTC]    
1 62222U 24231E   24365.49858308  .00019806  00000+0  12459-3 0  9998
2 62222  53.1558  82.6595 0001324  51.5430 308.5710 15.76753674  5208
STARLINK-11483 [DTC]    
1 62223U 24231F   24366.63465016  .00016324  00000+0  10339-3 0  9993
2 62223  53.1581  76.9393 0001511 114.4632 245.6546 15.76762750  5380
STARLINK-11492 [DTC]    
1 62224U 24231G   24366.81992651  .00002748  00000+0  20771-4 0  9991
2 62224  53.1603  75.9640 0000301 134.2083 225.8963 15.76729427  5417
STARLINK-11471 [DTC]    
1 62225U 24231H   24366.49810997  .00027387  00000+0  17059-3 0  9998
2 62225  53.1578  77.5102 0001948 109.2431 250.8801 15.76754846  5059
STARLINK-11475 [DTC]    
1 62226U 24231J   24366.49322607 -.00013454  00000+0 -78419-4 0  9995
2 62226  53.1578  77.4746 0001066 339.6206  20.4772 15.76705515  5319
STARLINK-11469 [DTC]    
1 62227U 24231K   24366.48834999  .00004178  00000+0  29522-4 0  9999
2 62227  53.1574  77.4418 0000939 353.4533   6.6475 15.76717954  5313
STARLINK-11476 [DTC]    
1 62228U 24231L   24365.75001157 -.00069603  00000+0 -42398-3 0  9992
2 62228  53.1552  81.0647 0000913 108.4251  46.0414 15.76769706  5258
STARLINK-11485 [DTC]    
1 62229U 24231M   24366.47858055  .00011120  00000+0  71885-4 0  9993
2 62229  53.1565  77.3802 0002033 114.7464 245.3768 15.76718188  5361
STARLINK-11481 [DTC]    
1 62230U 24231N   24366.60046524  .00008211  00000+0  54113-4 0  9992
2 62230  53.1573  76.7122 0000402 154.1106 205.9935 15.76727601  5334
STARLINK-32650          
1 62231U 24231P   25001.16667824  .00006993  00000+0  13367-3 0  9993
2 62231  53.1598  75.5956 0001284  94.2878 118.8047 15.49311179  5417
STARLINK-32636          
1 62232U 24231Q   24366.75001157 -.01515390  00000+0 -31182-1 0  9995
2 62232  53.1601  77.5947 0001053  49.1437 356.1781 15.48325465  5402
STARLINK-32643          
1 62233U 24231R   25001.16667824  .00031046  00000+0  56430-3 0  9990
2 62233  53.1598  75.5915 0001197  92.0163 122.9947 15.49296052  5417
STARLINK-32652          
1 62234U 24231S   25001.16667824  .00030581  00000+0  55600-3 0  9992
2 62234  53.1598  75.5876 0001197  91.5220 125.4055 15.49296315  5412
STARLINK-32631          
1 62235U 24231T   25001.16667824 -.00057904  00000+0 -10400-2 0  9991
2 62235  53.1600  75.5796 0001173  91.9181 128.8353 15.49329948  5419
STARLINK-32641          
1 62236U 24231U   25001.16667824  .00029909  00000+0  54399-3 0  9990
2 62236  53.1598  75.5835 0001198  91.0201 127.8238 15.49296721  5414
CZ-6A R/B               
1 62237U 24232A   25001.13080189  .00000905  00000+0  20886-3 0  9991
2 62237  89.0222  76.9827 0099774  22.9931 337.5696 14.51379003 52230
QIANFAN-37              
1 62238U 24232B   24366.92010085  .00001675  00000+0  71345-3 0  9991
2 62238  88.9927  77.0709 0017949 128.0748 232.2067 14.24647877 52139
QIANFAN-38              
1 62239U 24232C   24366.91777089  .00001695  00000+0  71697-3 0  9997
2 62239  88.9927  77.0705 0016513 127.4299 232.8399 14.25045198 52139
QIANFAN-39              
1 62240U 24232D   25001.12664049  .00002529  00000+0  10731-2 0  9998
2 62240  88.9927  77.0465 0018250 127.2124 233.0738 14.25002360 52166
QIANFAN-40              
1 62241U 24232E   24366.90425538  .00001753  00000+0  73046-3 0  9993
2 62241  88.9927  77.0684 0018053 128.4677 231.8139 14.25810599 52136
